{"fetched_at":"2026-07-20T07:40:17.151Z","source":"https://celestrak.org/NORAD/elements/gp.php?GROUP=kuiper&FORMAT=JSON","constellation":"kuiper","records":[{"OBJECT_NAME":"KUIPER-00191","OBJECT_ID":"2025-301L","EPOCH":"2026-07-19T05:35:16.837728","CLASSIFICATION_TYPE":"U","MEAN_MOTION":14.79930861,"ECCENTRICITY":0.00003001,"INCLINATION":51.8995,"RA_OF_ASC_NODE":211.4651,"ARG_OF_PERICENTER":73.1266,"MEAN_ANOMALY":286.973,"EPHEMERIS_TYPE":0,"NORAD_CAT_ID":67143,"ELEMENT_SET_NO":999,"REV_AT_EPOCH":3313,"BSTAR":0.00014993183,"MEAN_MOTION_DOT":0.00000922,"MEAN_MOTION_DDOT":0},{"OBJECT_NAME":"KUIPER-00196","OBJECT_ID":"2025-301M","EPOCH":"2026-07-19T07:38:04.524288","CLASSIFICATION_TYPE":"U","MEAN_MOTION":14.76350506,"ECCENTRICITY":0.00014676,"INCLINATION":51.898,"RA_OF_ASC_NODE":167.5712,"ARG_OF_PERICENTER":11.6385,"MEAN_ANOMALY":348.4609,"EPHEMERIS_TYPE":0,"NORAD_CAT_ID":67144,"ELEMENT_SET_NO":999,"REV_AT_EPOCH":3372,"BSTAR":0.00018243814,"MEAN_MOTION_DOT":0.00001064,"MEAN_MOTION_DDOT":0},{"OBJECT_NAME":"KUIPER-00204","OBJECT_ID":"2025-301N","EPOCH":"2026-07-19T15:12:48.903840","CLASSIFICATION_TYPE":"U","MEAN_MOTION":14.79936731,"ECCENTRICITY":0.0000601,"INCLINATION":51.9019,"RA_OF_ASC_NODE":182.1756,"ARG_OF_PERICENTER":27.1762,"MEAN_ANOMALY":332.9232,"EPHEMERIS_TYPE":0,"NORAD_CAT_ID":67145,"ELEMENT_SET_NO":999,"REV_AT_EPOCH":3366,"BSTAR":0.00018902,"MEAN_MOTION_DOT":0.0000122,"MEAN_MOTION_DDOT":0},{"OBJECT_NAME":"KUIPER-00210","OBJECT_ID":"2025-301P","EPOCH":"2026-07-19T09:38:20.882112","CLASSIFICATION_TYPE":"U","MEAN_MOTION":14.79942524,"ECCENTRICITY":0.00003825,"INCLINATION":51.8989,"RA_OF_ASC_NODE":210.6707,"ARG_OF_PERICENTER":60.7416,"MEAN_ANOMALY":299.3584,"EPHEMERIS_TYPE":0,"NORAD_CAT_ID":67146,"ELEMENT_SET_NO":999,"REV_AT_EPOCH":3330,"BSTAR":0.00014975654,"MEAN_MOTION_DOT":0.00000921,"MEAN_MOTION_DDOT":0},{"OBJECT_NAME":"KUIPER-00221","OBJECT_ID":"2025-301Q","EPOCH":"2026-07-19T08:38:05.838720","CLASSIFICATION_TYPE":"U","MEAN_MOTION":14.7993583,"ECCENTRICITY":0.00003129,"INCLINATION":51.9022,"RA_OF_ASC_NODE":218.3824,"ARG_OF_PERICENTER":58.7765,"MEAN_ANOMALY":301.3228,"EPHEMERIS_TYPE":0,"NORAD_CAT_ID":67147,"ELEMENT_SET_NO":999,"REV_AT_EPOCH":3302,"BSTAR":0.00015522192,"MEAN_MOTION_DOT":0.00000963,"MEAN_MOTION_DDOT":0},{"OBJECT_NAME":"KUIPER-00232","OBJECT_ID":"2025-301R","EPOCH":"2026-07-19T04:58:18.492672","CLASSIFICATION_TYPE":"U","MEAN_MOTION":14.79928906,"ECCENTRICITY":0.00004339,"INCLINATION":51.897,"RA_OF_ASC_NODE":204.0783,"ARG_OF_PERICENTER":46.9582,"MEAN_ANOMALY":313.1416,"EPHEMERIS_TYPE":0,"NORAD_CAT_ID":67148,"ELEMENT_SET_NO":999,"REV_AT_EPOCH":3320,"BSTAR":0.00016409004,"MEAN_MOTION_DOT":0.0000103,"MEAN_MOTION_DDOT":0},{"OBJECT_NAME":"KUIPER-00241","OBJECT_ID":"2025-301S","EPOCH":"2026-07-19T07:08:38.267232","CLASSIFICATION_TYPE":"U","MEAN_MOTION":14.79924973,"ECCENTRICITY":0.00004393,"INCLINATION":51.9026,"RA_OF_ASC_NODE":213.6801,"ARG_OF_PERICENTER":61.812,"MEAN_ANOMALY":298.2887,"EPHEMERIS_TYPE":0,"NORAD_CAT_ID":67149,"ELEMENT_SET_NO":999,"REV_AT_EPOCH":3341,"BSTAR":0.00016122319,"MEAN_MOTION_DOT":0.00001008,"MEAN_MOTION_DDOT":0},{"OBJECT_NAME":"KUIPER-00245","OBJECT_ID":"2025-301T","EPOCH":"2026-07-19T18:17:41.637408","CLASSIFICATION_TYPE":"U","MEAN_MOTION":14.79932953,"ECCENTRICITY":0.000026,"INCLINATION":51.9022,"RA_OF_ASC_NODE":219.1367,"ARG_OF_PERICENTER":62.4051,"MEAN_ANOMALY":297.6938,"EPHEMERIS_TYPE":0,"NORAD_CAT_ID":67150,"ELEMENT_SET_NO":999,"REV_AT_EPOCH":3304,"BSTAR":0.00015233,"MEAN_MOTION_DOT":0.0000094,"MEAN_MOTION_DDOT":0},{"OBJECT_NAME":"KUIPER-00246","OBJECT_ID":"2025-301U","EPOCH":"2026-07-19T06:31:38.106912","CLASSIFICATION_TYPE":"U","MEAN_MOTION":14.79941149,"ECCENTRICITY":0.000042,"INCLINATION":51.8993,"RA_OF_ASC_NODE":206.2551,"ARG_OF_PERICENTER":68.4197,"MEAN_ANOMALY":291.681,"EPHEMERIS_TYPE":0,"NORAD_CAT_ID":67151,"ELEMENT_SET_NO":999,"REV_AT_EPOCH":3320,"BSTAR":0.00016020924,"MEAN_MOTION_DOT":0.00001001,"MEAN_MOTION_DDOT":0},{"OBJECT_NAME":"KUIPER-00247","OBJECT_ID":"2025-301V","EPOCH":"2026-07-19T10:01:41.563488","CLASSIFICATION_TYPE":"U","MEAN_MOTION":14.79935357,"ECCENTRICITY":0.00005228,"INCLINATION":51.8955,"RA_OF_ASC_NODE":195.5798,"ARG_OF_PERICENTER":64.3233,"MEAN_ANOMALY":295.7783,"EPHEMERIS_TYPE":0,"NORAD_CAT_ID":67152,"ELEMENT_SET_NO":999,"REV_AT_EPOCH":3334,"BSTAR":0.0001624545,"MEAN_MOTION_DOT":0.00001018,"MEAN_MOTION_DDOT":0},{"OBJECT_NAME":"KUIPER-00248","OBJECT_ID":"2025-301W","EPOCH":"2026-07-19T15:20:23.810208","CLASSIFICATION_TYPE":"U","MEAN_MOTION":14.7991147,"ECCENTRICITY":0.0000841,"INCLINATION":51.898,"RA_OF_ASC_NODE":177.2299,"ARG_OF_PERICENTER":73.5477,"MEAN_ANOMALY":286.5577,"EPHEMERIS_TYPE":0,"NORAD_CAT_ID":67153,"ELEMENT_SET_NO":999,"REV_AT_EPOCH":3378,"BSTAR":0.00017566,"MEAN_MOTION_DOT":0.00001117,"MEAN_MOTION_DDOT":0},{"OBJECT_NAME":"KUIPER-00249","OBJECT_ID":"2025-301X","EPOCH":"2026-07-19T16:34:30.558144","CLASSIFICATION_TYPE":"U","MEAN_MOTION":14.79935827,"ECCENTRICITY":0.0000495,"INCLINATION":51.8989,"RA_OF_ASC_NODE":191.9327,"ARG_OF_PERICENTER":70.6907,"MEAN_ANOMALY":289.4109,"EPHEMERIS_TYPE":0,"NORAD_CAT_ID":67154,"ELEMENT_SET_NO":999,"REV_AT_EPOCH":3341,"BSTAR":0.00031091,"MEAN_MOTION_DOT":0.0000215,"MEAN_MOTION_DDOT":0},{"OBJECT_NAME":"KUIPER-00250","OBJECT_ID":"2025-301Y","EPOCH":"2026-07-19T16:59:51.722592","CLASSIFICATION_TYPE":"U","MEAN_MOTION":14.79931426,"ECCENTRICITY":0.000041,"INCLINATION":51.8987,"RA_OF_ASC_NODE":206.8102,"ARG_OF_PERICENTER":60.8,"MEAN_ANOMALY":299.3003,"EPHEMERIS_TYPE":0,"NORAD_CAT_ID":67155,"ELEMENT_SET_NO":999,"REV_AT_EPOCH":3324,"BSTAR":0.00015095,"MEAN_MOTION_DOT":0.0000093,"MEAN_MOTION_DDOT":0},{"OBJECT_NAME":"KUIPER-00251","OBJECT_ID":"2025-301Z","EPOCH":"2026-07-19T09:13:05.932416","CLASSIFICATION_TYPE":"U","MEAN_MOTION":14.79935125,"ECCENTRICITY":0.0000637,"INCLINATION":51.8996,"RA_OF_ASC_NODE":195.8118,"ARG_OF_PERICENTER":35.9767,"MEAN_ANOMALY":324.1238,"EPHEMERIS_TYPE":0,"NORAD_CAT_ID":67156,"ELEMENT_SET_NO":999,"REV_AT_EPOCH":3352,"BSTAR":0.00017298535,"MEAN_MOTION_DOT":0.00001098,"MEAN_MOTION_DDOT":0},{"OBJECT_NAME":"KUIPER-00252","OBJECT_ID":"2025-301AA","EPOCH":"2026-07-19T05:54:42.844608","CLASSIFICATION_TYPE":"U","MEAN_MOTION":14.79934806,"ECCENTRICITY":0.00004433,"INCLINATION":51.8992,"RA_OF_ASC_NODE":198.8716,"ARG_OF_PERICENTER":63.075,"MEAN_ANOMALY":297.0258,"EPHEMERIS_TYPE":0,"NORAD_CAT_ID":67157,"ELEMENT_SET_NO":999,"REV_AT_EPOCH":3328,"BSTAR":0.00015992496,"MEAN_MOTION_DOT":0.00000998,"MEAN_MOTION_DDOT":0},{"OBJECT_NAME":"KUIPER-00261","OBJECT_ID":"2025-301AB","EPOCH":"2026-07-19T09:42:15.826176","CLASSIFICATION_TYPE":"U","MEAN_MOTION":14.799258,"ECCENTRICITY":0.00003045,"INCLINATION":51.9006,"RA_OF_ASC_NODE":208.2274,"ARG_OF_PERICENTER":74.4371,"MEAN_ANOMALY":285.6625,"EPHEMERIS_TYPE":0,"NORAD_CAT_ID":67158,"ELEMENT_SET_NO":999,"REV_AT_EPOCH":3316,"BSTAR":0.00016203267,"MEAN_MOTION_DOT":0.00001014,"MEAN_MOTION_DDOT":0}]}
