KUIPER-00191            
1 67143U 25301L   26200.23283377  .00000922  00000+0  14993-3 0  9998
2 67143  51.8995 211.4651 0000300  73.1266 286.9730 14.79930861 33131
KUIPER-00196            
1 67144U 25301M   26200.31810792  .00001064  00000+0  18244-3 0  9996
2 67144  51.8980 167.5712 0001467  11.6385 348.4609 14.76350506 33722
KUIPER-00204            
1 67145U 25301N   26200.63389935  .00001220  00000+0  18902-3 0  9997
2 67145  51.9019 182.1756 0000601  27.1762 332.9232 14.79936731 33664
KUIPER-00210            
1 67146U 25301P   26200.40163058  .00000921  00000+0  14976-3 0  9993
2 67146  51.8989 210.6707 0000382  60.7416 299.3584 14.79942524 33302
KUIPER-00221            
1 67147U 25301Q   26200.35978980  .00000963  00000+0  15522-3 0  9990
2 67147  51.9022 218.3824 0000312  58.7765 301.3228 14.79935830 33024
KUIPER-00232            
1 67148U 25301R   26200.20715848  .00001030  00000+0  16409-3 0  9998
2 67148  51.8970 204.0783 0000433  46.9582 313.1416 14.79928906 33208
KUIPER-00241            
1 67149U 25301S   26200.29766513  .00001008  00000+0  16122-3 0  9990
2 67149  51.9026 213.6801 0000439  61.8120 298.2887 14.79924973 33417
KUIPER-00245            
1 67150U 25301T   26200.76228747  .00000940  00000+0  15233-3 0  9992
2 67150  51.9022 219.1367 0000260  62.4051 297.6938 14.79932953 33041
KUIPER-00246            
1 67151U 25301U   26200.27196883  .00001001  00000+0  16021-3 0  9999
2 67151  51.8993 206.2551 0000420  68.4197 291.6810 14.79941149 33203
KUIPER-00247            
1 67152U 25301V   26200.41784217  .00001018  00000+0  16245-3 0  9996
2 67152  51.8955 195.5798 0000522  64.3233 295.7783 14.79935357 33347
KUIPER-00248            
1 67153U 25301W   26200.63916447  .00001117  00000+0  17566-3 0  9990
2 67153  51.8980 177.2299 0000841  73.5477 286.5577 14.79911470 33782
KUIPER-00249            
1 67154U 25301X   26200.69063146  .00002150  00000+0  31091-3 0  9993
2 67154  51.8989 191.9327 0000495  70.6907 289.4109 14.79935827 33413
KUIPER-00250            
1 67155U 25301Y   26200.70823753  .00000930  00000+0  15095-3 0  9994
2 67155  51.8987 206.8102 0000410  60.8000 299.3003 14.79931426 33246
KUIPER-00251            
1 67156U 25301Z   26200.38409644  .00001098  00000+0  17299-3 0  9992
2 67156  51.8996 195.8118 0000637  35.9767 324.1238 14.79935125 33523
KUIPER-00252            
1 67157U 25301AA  26200.24632922  .00000998  00000+0  15992-3 0  9991
2 67157  51.8992 198.8716 0000443  63.0750 297.0258 14.79934806 33284
KUIPER-00261            
1 67158U 25301AB  26200.40434984  .00001014  00000+0  16203-3 0  9994
2 67158  51.9006 208.2274 0000304  74.4371 285.6625 14.79925800 33160
